#aV2010  5 19  0  0   .00000000      96 DD+AD WGS84 FIT  NGA
## 1584 259200.00000000   900.00000000 55335  .0000000000000
+   31     1  2  3  4  5  6  7  8  9 10 11 12 13 14 15 16 17
+         18 19 20 21 22 23 24 26 27 28 29 30 31 32  0  0  0
+          0  0  0  0  0  0  0  0  0  0  0  0  0  0  0  0  0
+          0  0  0  0  0  0  0  0  0  0  0  0  0  0  0  0  0
+          0  0  0  0  0  0  0  0  0  0  0  0  0  0  0  0  0
++         0  0  0  0  0  0  0  0  0  0  0  0  0  0  0  0  0
++         0  0  0  0  0  0  0  0  0  0  0  0  0  0  0  0  0
++         0  0  0  0  0  0  0  0  0  0  0  0  0  0  0  0  0
++         0  0  0  0  0  0  0  0  0  0  0  0  0  0  0  0  0
++         0  0  0  0  0  0  0  0  0  0  0  0  0  0  0  0  0
%c cc cc ccc ccc cccc cccc cccc cccc ccccc ccccc ccccc ccccc
%c cc cc ccc ccc cccc cccc cccc cccc ccccc ccccc ccccc ccccc
%f  0.0000000  0.000000000  0.00000000000  0.000000000000000
%f  0.0000000  0.000000000  0.00000000000  0.000000000000000
%i    0    0    0    0      0      0      0      0         0
%i    0    0    0    0      0      0      0      0         0
/*      NGA, ST. LOUIS,MO.                                  
/*   EPHEMERIS COMPUTED FROM  3 DAYS OF DATA                
/* CCCCCCCCCCCCCCCCCCCCCCCCCCCCCCCCCCCCCCCCCCCCCCCCCCCCCCCCC
/* CCCCCCCCCCCCCCCCCCCCCCCCCCCCCCCCCCCCCCCCCCCCCCCCCCCCCCCCC
*  2010  5 19  4 15   .00000000                                                 
P  1   -472.489386  17534.620846 -20030.354880   -121.420803                    
V  1 -21007.669622  13946.166092  12920.957937      -.040205                    
P  2 -13855.357183 -16101.024579 -16241.098080    256.934231                    
V  2   -434.560446 -20553.700103  20319.789875       .034530                    
P  3  24553.918662  10194.292599  -3303.962332    556.890543                    
V  3  -4612.786471   2249.054670 -30393.377752       .051139                    
P  4  -6296.944476 -25120.061556  -5128.305985     85.018667                    
V  4   3030.190927  -6725.921551  30581.280752       .083113                    
P  5 -17834.502426  -3817.883998 -19355.728868     -3.501375                    
V  5  19068.522308 -15463.108987 -14450.374920      -.011584                    
P  6  22190.588432  13378.246634  -5993.738319    635.581361                    
V  6  -8546.950046    348.319348 -29809.754252      -.113285                    
P  7   7215.719543 -21539.648312 -13636.571229      -.584583                    
V  7   3755.505219  17052.099831 -25129.573846      -.003177                    
P  8    564.298495 -26177.799954  -2126.177708      5.427379                    
V  8   2308.507377   2643.247715 -32662.022835       .001563                    
P  9 -14314.101286   2536.478152  21687.094005      7.377008                    
V  9  -3827.498861 -28544.849840    836.615316       .022842                    
P 10  -9948.793186 -11890.897062 -21759.644842    -42.864927                    
V 10  22399.381659 -15445.009479  -1474.006553      -.006534                    
P 11  14663.491036  -8102.864296  20321.113109    -63.446642                    
V 11   9529.264811  25029.627854   3430.785970      -.023216                    
P 12 -23211.891412  10954.058426   6559.174884   -113.808347                    
V 12   5315.540056  -6837.390754  30606.587910       .042827                    
P 13  12560.348760  -9292.440308 -21625.832598    304.290667                    
V 13  23656.686695  13086.640120   8140.542457      -.003802                    
P 14   8115.303725  17670.980763  18288.747373     47.189311                    
V 14 -20846.342151  -9379.491240  18324.385061       .043701                    
P 15 -25119.203134  -5287.896856   7072.826715   -270.761112                    
V 15  -7126.893879  -6077.389641 -29793.172306       .059140                    
P 16  13222.650677   8617.936172 -21363.046441    -72.880649                    
V 16 -22167.372212  15666.478407  -7113.733206      -.037372                    
P 17  -7018.866226 -17783.441818  18627.564047    151.600882                    
V 17  21682.313108   8818.771053  16475.308825       .023810                    
P 18 -14900.905448  19364.744324  10196.903472     69.129036                    
V 18 -12388.330370   4468.876513 -27688.187153       .024610                    
P 19  24491.210954   6568.389230   8454.047352    -35.938910                    
V 19   8142.064730   7221.677480 -29010.779303      -.026931                    
P 20  22444.123949 -13486.208123   4149.248495     55.920221                    
V 20  -2155.253417   6143.711967  30670.848487      -.005652                    
P 21  -5038.261844  23761.634787  -9627.025685    -61.109532                    
V 21  -5019.702890 -12561.529400 -28061.904702      -.025763                    
P 22  -3958.100746  18998.615892  18257.042513    171.793592                    
V 22 -20054.088638  11370.965002 -16415.857095      -.009219                    
P 23  20185.950059  -3681.637625 -17065.188276    370.318529                    
V 23  18928.539620  10243.058074  19902.187999      -.013751                    
P 24    945.695809  26681.942635   -583.243648    288.557515                    
V 24  -2999.478586   -684.926976 -31320.541810       .033656                    
P 26 -21972.825529   -765.267066  14635.663296    -53.788241                    
V 26 -16499.699667 -10196.280743 -23984.645434      -.050890                    
P 27 -15395.695781  -1288.605594  22302.927211    153.232342                    
V 27  -3942.520831 -26330.793935  -4227.575658       .033535                    
P 28   6417.421156 -18972.630022  17773.092424    -15.872947                    
V 28  18884.872207 -10837.594681 -19179.589714       .009838                    
P 29 -13062.069937   9854.955668 -20819.502681    120.880418                    
V 29 -23620.273548 -12399.079831   8949.007093       .026837                    
P 30 -18664.330988  18486.346278  -4106.421964    243.956940                    
V 30  -5529.526042    653.673664  31119.039152       .034149                    
P 31   7218.168697  24411.734615  -7043.029259    -35.785658                    
V 31  -1436.270008   9436.688115  30518.674787       .020561                    
P 32  23441.140582  -4605.089859  11580.688007     26.246408                    
V 32 -10939.007738   9584.314318  27074.117913      -.085118                    
EOF
